NORAD_CAT_ID,OBJECT_NAME,OBJECT_TYPE,EPOCH,MEAN_MOTION,ECCENTRICITY,INCLINATION,RA_OF_ASC_NODE,ARG_OF_PERICENTER,MEAN_ANOMALY,BSTAR,MEAN_MOTION_DOT,MEAN_MOTION_DDOT,TLE_LINE0,TLE_LINE1,TLE_LINE2,SEMIMAJOR_AXIS,PERIOD,APOGEE,PERIGEE,DECAYED
53863.0,STARLINK-4788,PAYLOAD,2022-11-18 06:00:00,15.73207554,0.0004293,53.2151,320.8104,4.9655,233.1125,-0.00048011,-0.00067529,0.0,0 STARLINK-4788,1 53863U 22114AX  22322.25001157 -.00067529  00000-0 -48011-3 0  9995,2 53863  53.2151 320.8104 0004293   4.9655 233.1125 15.73207554 10051,6727.874,91.533,352.62699999999984,346.85,0.0
53863.0,STARLINK-4788,PAYLOAD,2022-11-18 14:00:01,15.73232956,0.0004409,53.2149,319.1608,6.6342,320.3735,0.00018964,0.00026123,0.0,0 STARLINK-4788,1 53863U 22114AX  22322.58334491  .00026123  00000-0  18964-3 0  9998,2 53863  53.2149 319.1608 0004409   6.6342 320.3735 15.73232956 10105,6727.801,91.531,352.6330000000001,346.7,0.0
53863.0,STARLINK-4788,PAYLOAD,2022-11-18 22:00:00,15.7320334,0.0004007,53.2148,317.5096,4.7379,51.2342,0.00020041,0.0002761,0.0,0 STARLINK-4788,1 53863U 22114AX  22322.91667824  .00027610  00000-0  20041-3 0  9995,2 53863  53.2148 317.5096 0004007   4.7379  51.2342 15.73203340 10154,6727.886,91.533,352.44699999999995,347.055,0.0
53863.0,STARLINK-4788,PAYLOAD,2022-11-19 14:00:01,15.73272304,0.0004132,53.2141,314.212,2.4192,231.4284,-0.00075945,-0.00106263,0.0,0 STARLINK-4788,1 53863U 22114AX  22323.58334491 -.00106263  00000-0 -75945-3 0  9997,2 53863  53.2141 314.2120 0004132   2.4192 231.4284 15.73272304  1306,6727.689,91.529,352.334,346.774,0.0
53863.0,STARLINK-4788,PAYLOAD,2022-11-19 22:00:00,15.73191771,0.0003897,53.2144,312.5605,2.8445,319.9752,0.00041151,0.00057526,0.0,0 STARLINK-4788,1 53863U 22114AX  22323.91667824  .00057526  00000-0  41151-3 0  9990,2 53863  53.2144 312.5605 0003897   2.8445 319.9752 15.73191771  1300,6727.919,91.534,352.406,347.162,0.0
53863.0,STARLINK-4788,PAYLOAD,2022-11-20 06:00:00,15.73227494,0.0004119,53.2145,310.9129,5.2376,46.5271,-0.00074015,-0.00103414,0.0,0 STARLINK-4788,1 53863U 22114AX  22324.25001157 -.00103414  00000-0 -74015-3 0  9994,2 53863  53.2145 310.9129 0004119   5.2376  46.5271 15.73227494 10369,6727.816999999999,91.532,352.45300000000015,346.911,0.0
53863.0,STARLINK-4788,PAYLOAD,2022-11-20 14:00:01,15.73161364,0.000415,53.2143,309.2628,5.1239,135.5545,0.00014314,0.00019487,0.0,0 STARLINK-4788,1 53863U 22114AX  22324.58334491  .00019487  00000-0  14314-3 0  9990,2 53863  53.2143 309.2628 0004150   5.1239 135.5545 15.73161364 10427,6728.005,91.535,352.662,347.07800000000015,0.0
53863.0,STARLINK-4788,PAYLOAD,2022-11-20 22:00:00,15.731987699999998,0.0003925,53.2142,307.6118,8.3565,221.2085,-0.00012427,-0.00018035,0.0,0 STARLINK-4788,1 53863U 22114AX  22324.91667824 -.00018035  00000-0 -12427-3 0  9999,2 53863  53.2142 307.6118 0003925   8.3565 221.2085 15.73198770  1308,6727.899,91.533,352.404,347.12300000000016,0.0
53863.0,STARLINK-4788,PAYLOAD,2022-11-21 14:00:01,15.73215644,0.0004121,53.2137,304.3139,9.3012,38.0948,-0.00045679,-0.00064322,0.0,0 STARLINK-4788,1 53863U 22114AX  22325.58334491 -.00064322  00000-0 -45679-3 0  9999,2 53863  53.2137 304.3139 0004121   9.3012  38.0948 15.73215644  1308,6727.851,91.532,352.48800000000006,346.9430000000001,0.0
53863.0,STARLINK-4788,PAYLOAD,2022-11-21 22:00:00,15.73166178,0.0003899,53.2141,302.6628,10.4742,125.8372,0.00061799,0.00086912,0.0,0 STARLINK-4788,1 53863U 22114AX  22325.91667824  .00086912  00000-0  61799-3 0  9993,2 53863  53.2141 302.6628 0003899  10.4742 125.8372 15.73166178 10630,6727.9919999999975,91.535,352.48,347.233,0.0
53863.0,STARLINK-4788,PAYLOAD,2022-11-22 14:00:01,15.73224278,0.0004067,53.2141,299.3646,6.0608,308.2021,-0.00056042,-0.00078668,0.0,0 STARLINK-4788,1 53863U 22114AX  22326.58335648 -.00078668  00000-0 -56042-3 0  9999,2 53863  53.2141 299.3646 0004067   6.0608 308.2021 15.73224278 10737,6727.826,91.532,352.427,346.955,0.0
53863.0,STARLINK-4788,PAYLOAD,2022-11-22 22:00:00,15.73196795,0.0003895,53.2142,297.7139,6.212999999999999,36.9016,4.845300000000001e-05,6.182e-05,0.0,0 STARLINK-4788,1 53863U 22114AX  22326.91667824  .00006182  00000-0  48453-4 0  9998,2 53863  53.2142 297.7139 0003895   6.2130  36.9016 15.73196795 10783,6727.904,91.533,352.39,347.149,0.0
53863.0,STARLINK-4788,PAYLOAD,2022-11-23 14:00:01,15.73221579,0.0004005,53.2137,294.4157,4.4799,216.4623,-0.000108,-0.00015775,0.0,0 STARLINK-4788,1 53863U 22114AX  22327.58334491 -.00015775  00000-0 -10800-3 0  9997,2 53863  53.2137 294.4157 0004005   4.4799 216.4623 15.73221579  1302,6727.834,91.532,352.39300000000014,347.004,0.0
53863.0,STARLINK-4788,PAYLOAD,2022-11-23 22:00:00,15.7320836,0.0003815,53.2142,292.7649,4.3533,305.5399,3.4129e-05,4.171e-05,0.0,0 STARLINK-4788,1 53863U 22114AX  22327.91667824  .00004171  00000-0  34129-4 0  9990,2 53863  53.2142 292.7649 0003815   4.3533 305.5399 15.73208360  1301,6727.871,91.533,352.30300000000005,347.17,0.0
53863.0,STARLINK-4788,PAYLOAD,2022-11-24 00:00:00,15.73216675,0.0003871,53.2142,292.3531,3.8073,58.3198,-0.00014079,-0.00020358,0.0,0 STARLINK-4788,1 53863U 22114AX  22328.00001157 -.00020358  00000-0 -14079-3 0  9990,2 53863  53.2142 292.3531 0003871   3.8073  58.3198 15.73216675 10951,6727.848000000001,91.532,352.31699999999995,347.108,0.0
53863.0,STARLINK-4788,PAYLOAD,2022-11-24 14:00:01,15.73199757,0.0004016,53.2143,289.4666,1.2939,126.4552,0.00012227,0.00016576,0.0,0 STARLINK-4788,1 53863U 22114AX  22328.58334491  .00016576  00000-0  12227-3 0  9991,2 53863  53.2143 289.4666 0004016   1.2939 126.4552 15.73199757  1304,6727.896,91.533,352.463,347.059,0.0
53863.0,STARLINK-4788,PAYLOAD,2022-11-24 22:00:00,15.73256144,0.0003811,53.2143,287.8164,2.3903,214.2815,-0.00030666,-0.00043562,0.0,0 STARLINK-4788,1 53863U 22114AX  22328.91667824 -.00043562  00000-0 -30666-3 0  9991,2 53863  53.2143 287.8164 0003811   2.3903 214.2815 15.73256144 11105,6727.735,91.53,352.164,347.036,0.0
53863.0,STARLINK-4788,PAYLOAD,2022-11-25 14:00:01,15.73200552,0.0003935,53.2138,284.5179,4.4341,30.1718,1.1093e-05,9.33e-06,0.0,0 STARLINK-4788,1 53863U 22114AX  22329.58334491  .00000933  00000-0  11093-4 0  9993,2 53863  53.2138 284.5179 0003935   4.4341  30.1718 15.73200552  1305,6727.894,91.533,352.406,347.111,0.0
53863.0,STARLINK-4788,PAYLOAD,2022-11-25 22:00:00,15.73226351,0.0003796,53.2141,282.8678,7.3955,116.1371,0.00044078,0.00061784,0.0,0 STARLINK-4788,1 53863U 22114AX  22329.91667824  .00061784  00000-0  44078-3 0  9998,2 53863  53.2141 282.8678 0003796   7.3955 116.1371 15.73226351 11263,6727.82,91.532,352.23900000000015,347.131,0.0
53863.0,STARLINK-4788,PAYLOAD,2022-11-26 14:00:01,15.73253832,0.0003929,53.2141,279.569,3.1965,298.312,-0.00049515,-0.00069736,0.0,0 STARLINK-4788,1 53863U 22114AX  22330.58334491 -.00069736  00000-0 -49515-3 0  9992,2 53863  53.2141 279.5690 0003929   3.1965 298.3120 15.73253832 11363,6727.7419999999975,91.53,352.25,346.963,0.0
53863.0,STARLINK-4788,PAYLOAD,2022-11-26 22:00:00,15.73225391,0.0003842,53.2139,277.9191,4.625,25.8432,-0.00038874,-0.00054911,0.0,0 STARLINK-4788,1 53863U 22114AX  22330.91667824 -.00054911  00000-0 -38874-3 0  9993,2 53863  53.2139 277.9191 0003842   4.6250  25.8432 15.73225391  1306,6727.823,91.532,352.273,347.103,0.0
53863.0,STARLINK-4788,PAYLOAD,2022-11-27 14:00:01,15.73135277,0.0003879,53.2132,274.6205,1.2784,206.9948,0.00028044,0.00038822,0.0,0 STARLINK-4788,1 53863U 22114AX  22331.58334491  .00038822  00000-0  28044-3 0  9997,2 53863  53.2132 274.6205 0003879   1.2784 206.9948 15.73135277 11526,6728.08,91.537,352.555,347.335,0.0
53863.0,STARLINK-4788,PAYLOAD,2022-11-27 22:00:00,15.731899599999998,0.0003767,53.2133,272.971,2.0524,295.0712,0.00010771,0.00014517,0.0,0 STARLINK-4788,1 53863U 22114AX  22331.91667824  .00014517  00000-0  10771-3 0  9996,2 53863  53.2133 272.9710 0003767   2.0524 295.0712 15.73189960  1307,6727.924,91.534,352.3230000000001,347.254,0.0
53863.0,STARLINK-4788,PAYLOAD,2022-11-28 16:00:00,15.73185975,0.0003821,53.2142,269.2592,0.517,226.6901,0.0007712,0.00108991,0.0,0 STARLINK-4788,1 53863U 22114AX  22332.66667824  .00108991  00000-0  77120-3 0  9990,2 53863  53.2142 269.2592 0003821   0.5170 226.6901 15.73185975 11690,6727.935,91.534,352.371,347.22900000000016,0.0
53863.0,STARLINK-4788,PAYLOAD,2022-11-28 22:00:01,15.73279861,0.0003799,53.2147,268.0225,1.8143,202.1505,-0.00035115,-0.00049806,0.0,0 STARLINK-4788,1 53863U 22114AX  22332.91668981 -.00049806  00000-0 -35115-3 0  9992,2 53863  53.2147 268.0225 0003799   1.8143 202.1505 15.73279861  1307,6727.667,91.529,352.088,346.977,0.0
53863.0,STARLINK-4788,PAYLOAD,2022-11-29 06:00:00,15.73228113,0.0004057,53.2142,266.3747,1.947,290.9647,-0.00027213,-0.00038706,0.0,0 STARLINK-4788,1 53863U 22114AX  22333.25001157 -.00038706  00000-0 -27213-3 0  9993,2 53863  53.2142 266.3747 0004057   1.9470 290.9647 15.73228113 11783,6727.815,91.532,352.409,346.951,0.0
53863.0,STARLINK-4788,PAYLOAD,2022-11-29 14:00:01,15.73150295,0.0003766,53.214,264.723,1.6898,20.2327,4.476300000000001e-05,5.652e-05,0.0,0 STARLINK-4788,1 53863U 22114AX  22333.58335648  .00005652  00000-0  44763-4 0  9996,2 53863  53.2140 264.7230 0003766   1.6898  20.2327 15.73150295 11837,6728.0369999999975,91.536,352.436,347.36800000000005,0.0
53863.0,STARLINK-4788,PAYLOAD,2022-11-29 22:00:00,15.73184524,0.0003767,53.2142,263.0738,2.5118,108.2152,0.0002844,0.00039465,0.0,0 STARLINK-4788,1 53863U 22114AX  22333.91667824  .00039465  00000-0  28440-3 0  9999,2 53863  53.2142 263.0738 0003767   2.5118 108.2152 15.73184524 11891,6727.939,91.534,352.339,347.27,0.0
53863.0,STARLINK-4788,PAYLOAD,2022-11-30 14:00:01,15.73181344,0.0003827,53.2145,259.7743,1.0828,287.6067,0.00056464,0.00079334,0.0,0 STARLINK-4788,1 53863U 22114AX  22334.58335648  .00079334  00000-0  56464-3 0  9995,2 53863  53.2145 259.7743 0003827   1.0828 287.6067 15.73181344  1300,6727.948,91.534,352.38800000000015,347.23900000000015,0.0
